FLOCK 3P-39             
1 42038U 17008CU  17326.20855821  .00003042  00000-0  13020-3 0  9991
2 42038  97.4770  27.1390 0008599  33.1529 327.0245 15.23550645 42486
FLOCK 3P-15             
1 42039U 17008CV  17326.67322364  .00004105  00000-0  17482-3 0  9991
2 42039  97.4772  27.6021 0008411  31.7617 328.4126 15.23513722 41836
FLOCK 3P-13             
1 42040U 17008CW  17326.07592630  .00003626  00000-0  15463-3 0  9996
2 42040  97.4779  27.0282 0008308  35.3470 324.8316 15.23551279 41739
FLOCK 3P-55             
1 42041U 17008CX  17326.25146162  .00005028  00000-0  21336-3 0  9996
2 42041  97.4773  27.2486 0008245  38.4111 321.7711 15.23527994 42607
FLOCK 3P-56             
1 42042U 17008CY  17326.82120366  .00004809  00000-0  20140-3 0  9996
2 42042  97.4770  27.8537 0008073  35.2733 324.9036 15.23995865 42489
FLOCK 3P-81             
1 42043U 17008CZ  17326.23392225  .00005772  00000-0  24433-3 0  9996
2 42043  97.4798  27.2187 0008468  16.5904 343.5609 15.23547463 41776
FLOCK 3P-87             
1 42044U 17008DA  17326.30871801  .00004759  00000-0  20204-3 0  9993
2 42044  97.4795  27.2577 0008542  13.0825 347.0632 15.23538650 41935
FLOCK 3P-29             
1 42045U 17008DB  17326.83594666  .00007666  00000-0  32349-3 0  9996
2 42045  97.4777  27.7111 0008104   8.7890 351.3487 15.23540254 41863
FLOCK 3P-82             
1 42046U 17008DC  17326.30903777  .00005399  00000-0  22785-3 0  9990
2 42046  97.4796  27.2645 0008509  13.9443 346.2027 15.23675694 41830
FLOCK 3P-78             
1 42047U 17008DD  17326.30835613  .00005995  00000-0  25374-3 0  9993
2 42047  97.4798  27.2685 0008383  13.4320 346.7139 15.23534859 41764
FLOCK 3P-74             
1 42048U 17008DE  17326.11974865  .00005626  00000-0  23838-3 0  9990
2 42048  97.4800  27.0701 0008804  14.2109 345.9374 15.23523838 41732
FLOCK 3P-31             
1 42049U 17008DF  17326.12173546  .00007719  00000-0  32604-3 0  9995
2 42049  97.4776  26.9827 0008241  12.8576 347.2870 15.23507780 41193
FLOCK 3P-83             
1 42050U 17008DG  17326.12237055  .00005017  00000-0  21299-3 0  9990
2 42050  97.4796  27.0543 0008751  15.2760 344.8740 15.23507270 42466
FLOCK 3P-72             
1 42051U 17008DH  17326.75810341  .00001758  00000-0  76587-4 0  9994
2 42051  97.4805  27.7544 0008154  12.6654 347.4787 15.23520109 40156
LEMUR-2-REDFERN-GOES    
1 42059U 98067LA  17326.79882678  .00030469  00000-0  31098-3 0  9990
2 42059  51.6376 317.9064 0005791 151.3908 208.7405 15.64780466 40781
LEMUR-2-TRUTNA          
1 42067U 98067LC  17326.36346683  .00087366  00000-0  60332-3 0  9994
2 42067  51.6366 314.2112 0004681 123.0483 237.0966 15.73802953 40620
LEMUR-2-AUSTINTACIOUS   
1 42068U 98067LD  17326.81871848  .00042820  00000-0  40273-3 0  9999
2 42068  51.6377 316.5398 0005536 140.2861 219.8541 15.66663193 40737
LEMUR-2-TRUTNAHD        
1 42069U 98067LE  17326.81937396  .00032856  00000-0  32590-3 0  9992
2 42069  51.6385 317.3136 0005146 146.6602 213.4719 15.65464921 40774
HAVELSAT                
1 42700U 98067LH  17326.67200885  .00025886  00000-0  29709-3 0  9997
2 42700  51.6391 323.0740 0003962 179.5717 180.5281 15.61878101 29651
SOMP 2                  
1 42701U 98067LJ  17326.82963708  .00027970  00000-0  32611-3 0  9997
2 42701  51.6387 322.6281 0003993 180.0895 180.0098 15.61422235 29665
COLUMBIA                
1 42702U 98067LK  17326.79936471  .00099032  00000-0  73662-3 0  9990
2 42702  51.6356 317.8937 0003714 114.4336 245.7050 15.72012205 29658
SGSAT                   
1 42703U 98067LL  17326.82675714  .00064412  00000-0  57646-3 0  9993
2 42703  51.6357 319.5802 0004075  82.7140 277.4319 15.67724640 29625
CXBN-2                  
1 42704U 98067LM  17326.83387936  .00027105  00000-0  31525-3 0  9997
2 42704  51.6393 322.6589 0002674  97.9996 262.1301 15.61508578 29595
ICECUBE                 
1 42705U 98067LN  17326.82049224  .00040201  00000-0  42888-3 0  9998
2 42705  51.6418 321.8415 0003073 103.9805 256.1531 15.63528987 29668
PHOENIX                 
1 42706U 98067LP  17326.81662924  .00023513  00000-0  27429-3 0  9997
2 42706  51.6388 322.5436 0001706  94.7894 265.3295 15.61520093 29580
X-CUBESAT               
1 42707U 98067LQ  17326.80946823  .00029199  00000-0  33448-3 0  9994
2 42707  51.6374 322.4827 0001828  93.2507 266.8696 15.61862713 29577
QBEE50-LTU-OC           
1 42708U 98067LR  17326.81869879  .00026973  00000-0  31212-3 0  9995
2 42708  51.6381 322.5462 0001827  94.7224 265.3978 15.61645378 29532
ALTAIR PATHFINDER       
1 42711U 98067LS  17326.82861190  .00017344  00000-0  22277-3 0  9991
2 42711  51.6388 324.1147 0004577 114.1638 245.9834 15.59201437 29224
SHARC                   
1 42712U 98067LT  17326.46455265  .00017628  00000-0  23216-3 0  9993
2 42712  51.6402 326.1986 0002719 113.4556 246.6722 15.58525535 29403
ZA-AEROSAT              
1 42713U 98067LU  17326.82304206  .00024392  00000-0  29572-3 0  9999
2 42713  51.6386 323.3332 0003064  95.4458 264.6885 15.60487268 29237
LINK                    
1 42714U 98067LV  17326.84307041  .00038812  00000-0  41730-3 0  9994
2 42714  51.6369 321.9510 0003474  87.1595 272.9797 15.63345170 29362
CSUNSAT 1               
1 42715U 98067LW  17326.82163040  .00024929  00000-0  29976-3 0  9994
2 42715  51.6392 323.3218 0004921 103.0713 257.0830 15.60681671 29232
UPSAT                   
1 42716U 98067LX  17326.83690082  .00033522  00000-0  36836-3 0  9999
2 42716  51.6385 321.9241 0002276 167.6451 192.4600 15.62861303 29388
SPACECUBE               
1 42717U 98067LY  17326.83481117  .00027760  00000-0  32231-3 0  9999
2 42717  51.6383 322.6590 0002500 173.4625 186.6402 15.61539651 28617
HOOPOE                  
1 42718U 98067LZ  17326.41957804  .00034899  00000-0  39308-3 0  9998
2 42718  51.6384 324.3865 0002395 166.0009 194.1052 15.62204934 28551
CHALLENGER              
1 42721U 98067MA  17326.48435087  .00051501  00000-0  52826-3 0  9992
2 42721  51.6368 323.3033 0004890 149.8461 210.2816 15.64409853 28272
NJUST-1                 
1 42722U 98067MB  17326.72970230  .00021771  00000-0  26831-3 0  9997
2 42722  51.6390 324.2067 0005855 165.9090 194.2067 15.60117927 28288
UNSW-ECO                
1 42723U 98067MC  17326.51779003  .00036130  00000-0  40754-3 0  9995
2 42723  51.6392 324.2961 0005185 157.6356 202.4865 15.62139082 28245
DUTHSAT                 
1 42724U 98067MD  17326.44336604  .00048473  00000-0  50584-3 0  9999
2 42724  51.6380 323.7913 0004106 149.1589 210.9647 15.64003014 28160
LILACSAT-1              
1 42725U 98067ME  17326.83944741  .00026488  00000-0  31657-3 0  9992
2 42725  51.6389 323.4423 0004710 163.6542 196.4604 15.60805349 28207
NSIGHT-1                
1 42726U 98067MF  17326.69825136  .00012512  00000-0  16947-3 0  9991
2 42726  51.6399 325.5065 0005477 172.7280 187.3793 15.58087853 28178
SNUSAT-1                
1 42727U 98067MG  17326.45567860  .00032055  00000-0  38336-3 0  9993
2 42727  51.6376 325.3634 0007239 126.7426 233.4233 15.60665320 28113
QBITO                   
1 42728U 98067MH  17326.67245185  .00028356  00000-0  33067-3 0  9996
2 42728  51.6405 323.8415 0002271 151.5520 208.5598 15.61415124 27997
AALTO-2                 
1 42729U 98067MJ  17326.67119502  .00028220  00000-0  32851-3 0  9990
2 42729  51.6391 323.8215 0002222 149.8820 210.2302 15.61462705 28002
SUSAT                   
1 42730U 98067MK  17326.43116649  .00031459  00000-0  37041-3 0  9999
2 42730  51.6386 325.2136 0002390 148.4858 211.6279 15.61106340 27959
I-INSPIRE II            
1 42731U 98067ML  17326.56709345  .00032869  00000-0  36814-3 0  9998
2 42731  51.6376 323.8541 0007036 110.4288 249.7462 15.62357552 28031
POLYITAN-2-SAU          
1 42732U 98067MM  17326.59870099  .00029212  00000-0  33757-3 0  9998
2 42732  51.6381 324.0698 0006981 112.1106 248.0630 15.61612524 28031
SNUSAT-1B               
1 42733U 98067MN  17326.55959483  .00030859  00000-0  36350-3 0  9991
2 42733  51.6383 324.5624 0007012 115.0675 245.1047 15.61083118 28027
EXALTA-1                
1 42734U 98067MP  17326.70037447  .00032115  00000-0  36028-3 0  9995
2 42734  51.6375 323.2470 0007453 136.6409 223.5172 15.62324031 28007
AOXIANG-1               
1 42735U 98067MQ  17326.85053066  .00022892  00000-0  28028-3 0  9999
2 42735  51.6383 323.5081 0006434 163.5955 196.5247 15.60253282 29438
BEEAGLESAT              
1 42736U 98067MR  17326.45043506  .00027765  00000-0  33305-3 0  9992
2 42736  51.6381 325.3359 0006206 159.4352 200.6893 15.60673583 28069
ATLANTIS                
1 42737U 98067MS  17326.55562069  .00093390  00000-0  76983-3 0  9990
2 42737  51.6347 320.7559 0005306 124.8864 235.2633 15.69570331 28025
LEMUR-2-ANGELA          
1 42752U 17019B   17326.55358595  .00002560  00000-0  10423-3 0  9998
2 42752  51.6426   1.5196 0010357 186.0214 174.0643 15.28279204 25503
LEMUR-2-JENNYBARNA      
1 42753U 17019C   17326.53814293  .00003690  00000-0  14327-3 0  9991
2 42753  51.6407   1.4223 0010213 185.5388 174.5480 15.28582997 25443
LEMUR-2-ROBMOORE        
1 42754U 17019D   17326.56160581  .00003288  00000-0  13050-3 0  9994
2 42754  51.6428   1.5692 0010362 188.9852 171.0943 15.28203056 25482
LEMUR-2-SPIROVISION     
1 42755U 17019E   17326.54850158  .00003606  00000-0  14068-3 0  9993
2 42755  51.6416   1.4833 0010171 188.6288 171.4519 15.28495771 25372
UCLSAT                  
1 42765U 17036A   17326.84224952  .00002603  00000-0  11937-3 0  9991
2 42765  97.4306  24.7391 0013654  81.4785 278.7998 15.21264107 23333
LITUANICASAT-2          
1 42768U 17036D   17326.81231831  .00004023  00000-0  18681-3 0  9996
2 42768  97.4311  24.4792 0017571  71.4252 288.8890 15.20452747 23199
LEMUR-2-SHAINAJOHL      
1 42771U 17036G   17326.60465478  .00002784  00000-0  13040-3 0  9999
2 42771  97.4309  24.2967 0016783  71.5675 288.7383 15.20422640 23102
